FENGYUN 1C DEB          
1 30207U 99025VQ  17345.78742076  .00000076  00000-0  85716-4 0  9992
2 30207  98.4822 346.1908 0264190 131.7037 353.0341 13.77655949548217
